satname,norad_id,inclination_deg,eccentricity,mean_motion_rev_per_day,perigee_km,apogee_km,l1,l2
STARLINK-1281,45370,53.0544,0.0001283,15.06401771,546.3176085600762,548.0946516072563,1 45370U 20019L   25291.82392967  .00001766  00000+0  13743-3 0  9996,2 45370  53.0544  83.4784 0001283  89.7947 270.3189 15.06401771308355
STARLINK-1300,45374,53.0543,0.0001227,15.06408647,546.3353192391414,548.0347932717468,1 45374U 20019Q   25292.11143069  .00003406  00000+0  24737-3 0  9998,2 45374  53.0543  82.1853 0001227  86.0538 274.0591 15.06408647308396
STARLINK-1302,45375,53.0538,0.0001313,15.06405855,546.2843173551519,548.1029091741957,1 45375U 20019R   25292.12617084  .00001506  00000+0  11992-3 0  9991,2 45375  53.0538  82.1213 0001313  85.4486 274.6653 15.06405855308395
STARLINK-1304,45376,53.0522,0.0001195,15.06408006,546.3594445895369,548.014597030512,1 45376U 20019S   25292.14460737  .00004889  00000+0  34678-3 0  9998,2 45376  53.0522  82.0368 0001195  88.9466 271.1659 15.06408006308392
STARLINK-1305,45377,53.0533,0.0001429,15.20828875,502.35577481093696,504.32250069110614,1 45377U 20019T   25292.33336806  .01737330  00000+0  71037-1 0  9992,2 45377  53.0533  80.8376 0001429  95.0027 250.3759 15.20828875  5651
STARLINK-1319,45379,53.0543,0.0001356,15.06404105,546.2599011746306,548.1380522915206,1 45379U 20019V   25291.83130160  .00002062  00000+0  15728-3 0  9996,2 45379  53.0543  83.4462 0001356  91.5523 268.5621 15.06404105308352
STARLINK-1266,45383,53.0551,0.0001275,15.06411547,546.2931908434557,548.0591457013652,1 45383U 20019Z   25292.09852102  .00001161  00000+0  96822-4 0  9991,2 45383  53.0551  62.2472 0001275  89.1662 270.9473 15.06411547308663
STARLINK-1267,45384,53.0557,0.0001126,15.06415849,546.3831946836954,547.9427722399714,1 45384U 20019AA  25292.08385852  .00002938  00000+0  21597-3 0  9993,2 45384  53.0557  62.9695 0001126  81.6911 278.4206 15.06415849308658
STARLINK-1272,45386,53.0542,0.0001353,15.18043566,510.82179320954947,512.6861977129201,1 45386U 20019AC  25292.33336806  .01823049  00000+0  80403-1 0  9992,2 45386  53.0542  60.9542 0001353  90.2091 266.7337 15.18043566  5655
STARLINK-1274,45387,53.0347,0.0004965,15.27855381,478.8184605645265,485.6307996632295,1 45387U 20019AD  25292.29566692  .00144557  00000+0  51548-2 0  9994,2 45387  53.0347  48.5226 0004965 180.3709 179.7287 15.27855381308872
STARLINK-1280,45388,53.0556,0.0001044,15.20734875,502.90425199826313,504.3411634252325,1 45388U 20019AE  25292.33336806  .01707488  00000+0  70115-1 0  9991,2 45388  53.0556  80.7915 0001044 122.9780   7.6795 15.20734875  5801
STARLINK-1283,45389,53.0529,0.0003024,15.28792499,477.3471121504035,481.4945631306082,1 45389U 20019AF  25292.33336806  .00153167  00000+0  53018-2 0  9994,2 45389  53.0529  59.6150 0003024  53.6442  71.7243 15.28792499  5807
STARLINK-1284,45390,53.0555,0.0001568,15.06416883,546.0739279176314,548.2457009986456,1 45390U 20019AG  25292.10219747 -.00003668  00000+0 -22739-3 0  9994,2 45390  53.0555  62.2291 0001568  87.1581 272.9587 15.06416883308663
STARLINK-1292,45394,53.0493,0.0007521,15.86794618,306.2451842731025,316.3073997469437,1 45394U 20019AL  25292.33336806  .00336981  00000+0  12408-2 0  9995,2 45394  53.0493  18.7084 0007521 325.4263  40.9240 15.86794618  5840
STARLINK-1297,45395,53.0539,0.0001126,15.06420048,546.3703270580754,547.9299017162357,1 45395U 20019AM  25291.80734596  .00004805  00000+0  34109-3 0  9995,2 45395  53.0539  63.5516 0001126  85.1479 274.9638 15.06420048307800
STARLINK-1307,45397,53.0578,7.96e-05,15.06408889,546.633058990853,547.735570144132,1 45397U 20019AP  25292.06534559  .00001180  00000+0  98052-4 0  9994,2 45397  53.0578  62.3944 0000796  82.8287 277.2793 15.06408889308482
STARLINK-1312,45398,53.0477,0.0004199,15.88687884,303.15399258268735,308.76729778511253,1 45398U 20019AQ  25292.33336806  .00532482  00000+0  17474-2 0  9991,2 45398  53.0477  18.2041 0004199 309.4586 239.2639 15.88687884  5733
STARLINK-1255,45399,53.0532,0.0001345,15.24899297,490.16393139488537,492.0117528774199,1 45399U 20019AR  25292.33336806  .00099255  00000+0  38985-2 0  9998,2 45399  53.0532  50.6219 0001345  74.4846  48.7138 15.24899297  5809
STARLINK-1259,45403,53.0446,0.0004078,16.0631983,254.25244393256708,259.66402760686105,1 45403U 20019AV  25292.29920972  .00842450  38111-3  11071-2 0  9990,2 45403  53.0446 357.4645 0004078  22.2951 337.8257 16.06319830309390
STARLINK-1260,45404,53.0548,0.0001912,15.06400718,545.8852311490327,548.5334835960921,1 45404U 20019AW  25291.66819553 -.00000223  00000+0  39547-5 0  9991,2 45404  53.0548  54.1768 0001912  94.4148 265.7059 15.06400718308454
STARLINK-1263,45405,53.0559,9.19e-05,15.06400821,546.572602391434,547.8454809938967,1 45405U 20019AX  25291.71979763  .00000164  00000+0  29894-4 0  9994,2 45405  53.0559  53.9469 0000919  78.7647 281.3445 15.06400821308466
STARLINK-1265,45406,53.0559,0.0001375,15.06413336,546.2184555138165,548.1229151272792,1 45406U 20019AY  25292.05889667  .00002480  00000+0  18528-3 0  9990,2 45406  53.0559  52.4238 0001375  86.1014 274.0133 15.06413336308517
STARLINK-1278,45408,53.0535,0.0001512,15.18751518,508.571295269443,510.6541507856864,1 45408U 20019BA  25292.33336806  .01857611  00000+0  80137-1 0  9993,2 45408  53.0535  80.9251 0001512  96.5440 305.2867 15.18751518  5699
STARLINK-1296,45412,53.055,0.0001415,15.06406212,546.212584991441,548.1724532453518,1 45412U 20019BE  25292.06258866  .00003962  00000+0  28469-3 0  9990,2 45412  53.0550  52.4049 0001415  91.0936 269.0215 15.06406212308518
STARLINK-1298,45413,53.0499,0.0007015,15.49585395,413.1705848701931,422.70547813939356,1 45413U 20019BF  25292.00920985  .00150501  00000+0  26344-2 0  9994,2 45413  53.0499  32.7332 0007015 244.3828 115.6456 15.49585395308882
STARLINK-1309,45414,53.0579,0.0001328,15.06397852,546.2984540939724,548.1378284194907,1 45414U 20019BG  25292.07734246 -.00002282  00000+0 -13434-3 0  9996,2 45414  53.0579  52.3395 0001328  97.0429 263.0711 15.06397852308503
STARLINK-1316,45415,53.0543,0.0001207,15.06403418,546.3651939738365,548.0369705868998,1 45415U 20019BH  25292.03679150  .00001697  00000+0  13275-3 0  9995,2 45415  53.0543  52.5209 0001207  84.6349 275.4777 15.06403418308538
STARLINK-1318,45416,53.0532,0.0003198,15.58753199,389.0995856480995,393.42929480926887,1 45416U 20019BJ  25291.67914192  .00071775  00000+0  91240-3 0  9995,2 45416  53.0532  26.6269 0003198 354.3929   5.7046 15.58753199308856
STARLINK-1286,45417,53.0537,0.0001682,15.13089604,525.6230524459206,527.9458680251437,1 45417U 20019BK  25292.33336806  .01167880  00000+0  59890-1 0  9997,2 45417  53.0537  81.0376 0001682 102.4040 299.1892 15.13089604  5540
STARLINK-1308,45419,53.0537,0.0001213,15.06407611,546.3481894671049,548.0282733682461,1 45419U 20019BM  25292.13722622  .00001338  00000+0  10870-3 0  9993,2 45419  53.0537  82.0703 0001213  90.1423 269.9705 15.06407611308138
STARLINK-1329,45531,53.0576,0.0001364,15.06407683,546.2433964184465,548.1326250813781,1 45531U 20025A   25291.97319563 -.00000731  00000+0 -30186-4 0  9993,2 45531  53.0576  22.8052 0001364  92.8564 267.2581 15.06407683303730
STARLINK-1338,45532,53.0539,0.0001019,15.0640749,546.4829115832799,547.8942929410205,1 45532U 20025B   25291.98426832  .00003004  00000+0  22044-3 0  9990,2 45532  53.0539  22.7573 0001019  93.3657 266.7448 15.06407490303735
STARLINK-1350,45535,53.074,9.3e-05,15.3185683,469.63563095563404,470.9094351287795,1 45535U 20025E   25292.28619890  .00020082  00000+0  65392-3 0  9993,2 45535  53.0740 335.1580 0000930  68.1706 291.9394 15.31856830304451
STARLINK-1362,45538,53.0549,0.0001047,15.06406333,546.4670663115721,547.9172302352208,1 45538U 20025H   25291.95010716  .00009134  00000+0  63116-3 0  9998,2 45538  53.0549  22.6295 0001047  94.5435 265.5673 15.06406333303732
STARLINK-1368,45540,53.0568,0.0001343,15.06405645,546.264184892535,548.1243288681335,1 45540U 20025K   25291.95477508  .00001163  00000+0  96962-4 0  9997,2 45540  53.0568  22.8895 0001343  90.8682 269.2461 15.06405645303726
STARLINK-1371,45542,53.055,0.0001405,15.06401844,546.2328956712863,548.1789170279708,1 45542U 20025M   25291.99163357  .00002027  00000+0  15490-3 0  9993,2 45542  53.0550  22.7241 0001405  97.0663 263.0485 15.06401844303736
STARLINK-1372,45543,53.0559,0.0001273,15.06402959,546.3208933273409,548.0840847612508,1 45543U 20025N   25291.96214794  .00000000  00000+0  18880-4 0  9999,2 45543  53.0559  22.8564 0001273  84.7549 275.3585 15.06402959302828
STARLINK-1373,45544,53.0572,0.0001684,15.06418998,545.9871135244393,548.3195513083974,1 45544U 20025P   25291.98057656  .00001070  00000+0  90712-4 0  9996,2 45544  53.0572  22.7739 0001684  89.3203 270.7979 15.06418998303738
STARLINK-1294,45551,53.0501,0.0007795,15.57497903,389.62165646291396,400.18082307871646,1 45551U 20025W   25292.31076687  .00101214  00000+0  13397-2 0  9990,2 45551  53.0501 318.9450 0007795  11.1035 349.0147 15.57497903304662
STARLINK-1325,45554,53.0579,0.0001771,15.5571387,398.87786900905303,401.27871286510253,1 45554U 20025Z   25292.33336806  .00199032  00000+0  27767-2 0  9998,2 45554  53.0579 311.7108 0001771  80.4318 252.4534 15.55713870  5917
STARLINK-1327,45555,53.0556,0.0001489,15.06404016,546.1680669364814,548.230432071583,1 45555U 20025AA  25291.62120196 -.00000836  00000+0 -37222-4 0  9997,2 45555  53.0556   4.3875 0001489  93.8888 266.2272 15.06404016303957
STARLINK-1336,45557,53.0324,0.0003045,16.11126876,241.7374103545244,245.7701418371662,1 45557U 20025AC  25292.57365475  .01083606  73284-3  10501-2 0  9997,2 45557  53.0324 297.5394 0003045  78.7223 281.4153 16.11126876304971
STARLINK-1356,45564,53.055,0.0001155,15.06401176,546.4080763278471,548.0078310121453,1 45564U 20025AK  25291.89026338  .00010943  00000+0  75235-3 0  9992,2 45564  53.0550   3.1791 0001155  94.3681 265.7440 15.06401176303991
